{"spkid": "50694474", "covariance": {"data": [["6.18001924315413E-15", "-8.766015532376031E-15", "-7.986037880371582E-13", "1.058906046100151E-14", "-2.035861430096578E-13", "5.768937314035621E-14"], ["-8.766015532376031E-15", "1.259189307536454E-14", "2.584374573321902E-13", "-9.598075004052958E-15", "-2.680969126689287E-14", "-8.405400601527581E-14"], ["-7.986037880371582E-13", "2.584374573321902E-13", "5.137500268600426E-9", "-7.437217247837336E-11", "1.906520405360648E-9", "-7.644432557398706E-11"], ["1.058906046100151E-14", "-9.598075004052958E-15", "-7.437217247837336E-11", "9.666430151483811E-11", "-9.697528452951568E-11", "9.359702734078466E-11"], ["-2.035861430096578E-13", "-2.680969126689287E-14", "1.906520405360648E-9", "-9.697528452951568E-11", "7.891308545511951E-10", "-9.744234065955303E-11"], ["5.768937314035621E-14", "-8.405400601527581E-14", "-7.644432557398706E-11", "9.359702734078466E-11", "-9.744234065955303E-11", "5.643625479005532E-10"]], "elements": [{"label": "e", "title": "eccentricity", "value": ".3240816171725864", "units": null, "name": "e", "sigma": 7.86130984197553e-08}, {"label": "q", "name": "q", "sigma": 1.1221360468038e-07, "units": "au", "value": ".9713680007526566", "title": "perihelion distance"}, {"label": "tp", "title": "time of perihelion passage", "value": "2457909.379462175160", "units": "TDB", "sigma": 7.16763578078604e-05, "name": "tp"}, {"name": "om", "sigma": 9.83180052253086e-06, "units": "deg", "title": "longitude of the ascending node", "value": "45.43391879267756", "label": "node"}, {"value": "182.4098219823548", "title": "argument of perihelion", "units": "deg", "name": "w", "sigma": 2.80914729864989e-05, "label": "peri"}, {"label": "i", "sigma": 2.3756315958089e-05, "name": "i", "units": "deg", "title": "inclination", "value": "39.90919910833432"}], "labels": ["e", "q", "tp", "node", "peri", "i"], "epoch": "2457774.5"}, "elements": [{"label": "e", "name": "e", "sigma": "7.8618E-8", "units": null, "value": ".3239735253796082", "title": "eccentricity"}, {"label": "a", "units": "au", "value": "1.43704501908452", "title": "semi-major axis", "sigma": "1.8721E-8", "name": "a"}, {"label": "q", "name": "q", "sigma": "1.1222E-7", "units": "au", "title": "perihelion distance", "value": ".9714804781225017"}, {"label": "i", "name": "i", "sigma": "2.3755E-5", "title": "inclination; angle with respect to x-y ecliptic plane", "value": "39.90561284386051", "units": "deg"}, {"sigma": "9.839E-6", "name": "om", "units": "deg", "title": "longitude of the ascending node", "value": "45.40489301473548", "label": "node"}, {"label": "peri", "units": "deg", "title": "argument of perihelion", "value": "182.4907674248164", "name": "w", "sigma": "2.8101E-5"}, {"sigma": "8.6258E-6", "name": "ma", "units": "deg", "title": "mean anomaly", "value": "82.66603716547193", "label": "M"}, {"label": "tp", "units": "TDB", "title": "time of perihelion passage", "value": "2461056.013055958335", "sigma": "1.6417E-5", "name": "tp"}, {"label": "period", "value": "629.2221284404978", "title": "sidereal orbital period", "units": "d", "sigma": "1.2296E-5", "name": "per"}, {"value": ".5721349960978737", "title": "mean motion", "units": "deg/d", "name": "n", "sigma": "1.118E-8", "label": "n"}, {"label": "Q", "sigma": "2.4786E-8", "name": "ad", "units": "au", "title": "aphelion distance", "value": "1.902609560046539"}], "epoch": "2461200.5"}